<?xml version="1.0" encoding="UTF-8"?>
<ndm xmlns:xsi="http://www.w3.org/2001/XMLSchema-instance" xsi:noNamespaceSchemaLocation="https://sanaregistry.org/r/ndmxml_unqualified/ndmxml-2.0.0-master-2.0.xsd">
<omm id="CCSDS_OMM_VERS" version="2.0">
<header><CREATION_DATE/><ORIGINATOR/></header><body><segment><metadata><OBJECT_NAME>KUIPER-00079</OBJECT_NAME><OBJECT_ID>2025-151L</OBJECT_ID><CENTER_NAME>EARTH</CENTER_NAME><REF_FRAME>TEME</REF_FRAME><TIME_SYSTEM>UTC</TIME_SYSTEM><MEAN_ELEMENT_THEORY>SGP4</MEAN_ELEMENT_THEORY></metadata><data><meanElements><EPOCH>2025-08-01T11:16:33.292128</EPOCH><MEAN_MOTION>15.35929609</MEAN_MOTION><ECCENTRICITY>.0005991</ECCENTRICITY><INCLINATION>51.8779</INCLINATION><RA_OF_ASC_NODE>209.4593</RA_OF_ASC_NODE><ARG_OF_PERICENTER>188.4187</ARG_OF_PERICENTER><MEAN_ANOMALY>171.6699</MEAN_ANOMALY></meanElements><tleParameters><EPHEMERIS_TYPE>0</EPHEMERIS_TYPE><CLASSIFICATION_TYPE>U</CLASSIFICATION_TYPE><NORAD_CAT_ID>64826</NORAD_CAT_ID><ELEMENT_SET_NO>999</ELEMENT_SET_NO><REV_AT_EPOCH>368</REV_AT_EPOCH><BSTAR>.69764E-3</BSTAR><MEAN_MOTION_DOT>.24481E-3</MEAN_MOTION_DOT><MEAN_MOTION_DDOT>0</MEAN_MOTION_DDOT></tleParameters></data></segment></body></omm>
<omm id="CCSDS_OMM_VERS" version="2.0">
<header><CREATION_DATE/><ORIGINATOR/></header><body><segment><metadata><OBJECT_NAME>KUIPER-00080</OBJECT_NAME><OBJECT_ID>2025-151M</OBJECT_ID><CENTER_NAME>EARTH</CENTER_NAME><REF_FRAME>TEME</REF_FRAME><TIME_SYSTEM>UTC</TIME_SYSTEM><MEAN_ELEMENT_THEORY>SGP4</MEAN_ELEMENT_THEORY></metadata><data><meanElements><EPOCH>2025-08-01T11:20:53.812320</EPOCH><MEAN_MOTION>15.35640697</MEAN_MOTION><ECCENTRICITY>.0005014</ECCENTRICITY><INCLINATION>51.8781</INCLINATION><RA_OF_ASC_NODE>209.4819</RA_OF_ASC_NODE><ARG_OF_PERICENTER>197.7387</ARG_OF_PERICENTER><MEAN_ANOMALY>162.3424</MEAN_ANOMALY></meanElements><tleParameters><EPHEMERIS_TYPE>0</EPHEMERIS_TYPE><CLASSIFICATION_TYPE>U</CLASSIFICATION_TYPE><NORAD_CAT_ID>64827</NORAD_CAT_ID><ELEMENT_SET_NO>999</ELEMENT_SET_NO><REV_AT_EPOCH>248</REV_AT_EPOCH><BSTAR>.64177E-3</BSTAR><MEAN_MOTION_DOT>.2227E-3</MEAN_MOTION_DOT><MEAN_MOTION_DDOT>0</MEAN_MOTION_DDOT></tleParameters></data></segment></body></omm>
<omm id="CCSDS_OMM_VERS" version="2.0">
<header><CREATION_DATE/><ORIGINATOR/></header><body><segment><metadata><OBJECT_NAME>KUIPER-00082</OBJECT_NAME><OBJECT_ID>2025-151N</OBJECT_ID><CENTER_NAME>EARTH</CENTER_NAME><REF_FRAME>TEME</REF_FRAME><TIME_SYSTEM>UTC</TIME_SYSTEM><MEAN_ELEMENT_THEORY>SGP4</MEAN_ELEMENT_THEORY></metadata><data><meanElements><EPOCH>2025-08-01T14:26:41.853984</EPOCH><MEAN_MOTION>15.35735274</MEAN_MOTION><ECCENTRICITY>.0005338</ECCENTRICITY><INCLINATION>51.8775</INCLINATION><RA_OF_ASC_NODE>208.8424</RA_OF_ASC_NODE><ARG_OF_PERICENTER>195.3191</ARG_OF_PERICENTER><MEAN_ANOMALY>164.7634</MEAN_ANOMALY></meanElements><tleParameters><EPHEMERIS_TYPE>0</EPHEMERIS_TYPE><CLASSIFICATION_TYPE>U</CLASSIFICATION_TYPE><NORAD_CAT_ID>64828</NORAD_CAT_ID><ELEMENT_SET_NO>999</ELEMENT_SET_NO><REV_AT_EPOCH>250</REV_AT_EPOCH><BSTAR>.45108E-3</BSTAR><MEAN_MOTION_DOT>.15573E-3</MEAN_MOTION_DOT><MEAN_MOTION_DDOT>0</MEAN_MOTION_DDOT></tleParameters></data></segment></body></omm>
<omm id="CCSDS_OMM_VERS" version="2.0">
<header><CREATION_DATE/><ORIGINATOR/></header><body><segment><metadata><OBJECT_NAME>KUIPER-00083</OBJECT_NAME><OBJECT_ID>2025-151P</OBJECT_ID><CENTER_NAME>EARTH</CENTER_NAME><REF_FRAME>TEME</REF_FRAME><TIME_SYSTEM>UTC</TIME_SYSTEM><MEAN_ELEMENT_THEORY>SGP4</MEAN_ELEMENT_THEORY></metadata><data><meanElements><EPOCH>2025-08-01T12:58:32.309472</EPOCH><MEAN_MOTION>15.35310294</MEAN_MOTION><ECCENTRICITY>.0005224</ECCENTRICITY><INCLINATION>51.8768</INCLINATION><RA_OF_ASC_NODE>209.1790</RA_OF_ASC_NODE><ARG_OF_PERICENTER>202.9633</ARG_OF_PERICENTER><MEAN_ANOMALY>157.1120</MEAN_ANOMALY></meanElements><tleParameters><EPHEMERIS_TYPE>0</EPHEMERIS_TYPE><CLASSIFICATION_TYPE>U</CLASSIFICATION_TYPE><NORAD_CAT_ID>64829</NORAD_CAT_ID><ELEMENT_SET_NO>999</ELEMENT_SET_NO><REV_AT_EPOCH>368</REV_AT_EPOCH><BSTAR>.48526E-3</BSTAR><MEAN_MOTION_DOT>.16554E-3</MEAN_MOTION_DOT><MEAN_MOTION_DDOT>0</MEAN_MOTION_DDOT></tleParameters></data></segment></body></omm>
<omm id="CCSDS_OMM_VERS" version="2.0">
<header><CREATION_DATE/><ORIGINATOR/></header><body><segment><metadata><OBJECT_NAME>KUIPER-00084</OBJECT_NAME><OBJECT_ID>2025-151Q</OBJECT_ID><CENTER_NAME>EARTH</CENTER_NAME><REF_FRAME>TEME</REF_FRAME><TIME_SYSTEM>UTC</TIME_SYSTEM><MEAN_ELEMENT_THEORY>SGP4</MEAN_ELEMENT_THEORY></metadata><data><meanElements><EPOCH>2025-08-01T14:00:01.999872</EPOCH><MEAN_MOTION>15.31165182</MEAN_MOTION><ECCENTRICITY>.000592</ECCENTRICITY><INCLINATION>51.8789</INCLINATION><RA_OF_ASC_NODE>209.0646</RA_OF_ASC_NODE><ARG_OF_PERICENTER>209.6542</ARG_OF_PERICENTER><MEAN_ANOMALY>339.4975</MEAN_ANOMALY></meanElements><tleParameters><EPHEMERIS_TYPE>0</EPHEMERIS_TYPE><CLASSIFICATION_TYPE>U</CLASSIFICATION_TYPE><NORAD_CAT_ID>64830</NORAD_CAT_ID><ELEMENT_SET_NO>999</ELEMENT_SET_NO><REV_AT_EPOCH>222</REV_AT_EPOCH><BSTAR>-.3249E-1</BSTAR><MEAN_MOTION_DOT>-.911072E-2</MEAN_MOTION_DOT><MEAN_MOTION_DDOT>0</MEAN_MOTION_DDOT></tleParameters></data></segment></body></omm>
<omm id="CCSDS_OMM_VERS" version="2.0">
<header><CREATION_DATE/><ORIGINATOR/></header><body><segment><metadata><OBJECT_NAME>KUIPER-00085</OBJECT_NAME><OBJECT_ID>2025-151R</OBJECT_ID><CENTER_NAME>EARTH</CENTER_NAME><REF_FRAME>TEME</REF_FRAME><TIME_SYSTEM>UTC</TIME_SYSTEM><MEAN_ELEMENT_THEORY>SGP4</MEAN_ELEMENT_THEORY></metadata><data><meanElements><EPOCH>2025-08-01T14:24:25.577856</EPOCH><MEAN_MOTION>15.35893783</MEAN_MOTION><ECCENTRICITY>.0006041</ECCENTRICITY><INCLINATION>51.8779</INCLINATION><RA_OF_ASC_NODE>208.8330</RA_OF_ASC_NODE><ARG_OF_PERICENTER>190.2691</ARG_OF_PERICENTER><MEAN_ANOMALY>169.8172</MEAN_ANOMALY></meanElements><tleParameters><EPHEMERIS_TYPE>0</EPHEMERIS_TYPE><CLASSIFICATION_TYPE>U</CLASSIFICATION_TYPE><NORAD_CAT_ID>64831</NORAD_CAT_ID><ELEMENT_SET_NO>999</ELEMENT_SET_NO><REV_AT_EPOCH>250</REV_AT_EPOCH><BSTAR>.77223E-3</BSTAR><MEAN_MOTION_DOT>.27119E-3</MEAN_MOTION_DOT><MEAN_MOTION_DDOT>0</MEAN_MOTION_DDOT></tleParameters></data></segment></body></omm>
<omm id="CCSDS_OMM_VERS" version="2.0">
<header><CREATION_DATE/><ORIGINATOR/></header><body><segment><metadata><OBJECT_NAME>KUIPER-00086</OBJECT_NAME><OBJECT_ID>2025-151S</OBJECT_ID><CENTER_NAME>EARTH</CENTER_NAME><REF_FRAME>TEME</REF_FRAME><TIME_SYSTEM>UTC</TIME_SYSTEM><MEAN_ELEMENT_THEORY>SGP4</MEAN_ELEMENT_THEORY></metadata><data><meanElements><EPOCH>2025-08-01T13:00:44.432352</EPOCH><MEAN_MOTION>15.35173630</MEAN_MOTION><ECCENTRICITY>.0005324</ECCENTRICITY><INCLINATION>51.8771</INCLINATION><RA_OF_ASC_NODE>209.1909</RA_OF_ASC_NODE><ARG_OF_PERICENTER>213.9640</ARG_OF_PERICENTER><MEAN_ANOMALY>146.1006</MEAN_ANOMALY></meanElements><tleParameters><EPHEMERIS_TYPE>0</EPHEMERIS_TYPE><CLASSIFICATION_TYPE>U</CLASSIFICATION_TYPE><NORAD_CAT_ID>64832</NORAD_CAT_ID><ELEMENT_SET_NO>999</ELEMENT_SET_NO><REV_AT_EPOCH>249</REV_AT_EPOCH><BSTAR>.73937E-3</BSTAR><MEAN_MOTION_DOT>.25342E-3</MEAN_MOTION_DOT><MEAN_MOTION_DDOT>0</MEAN_MOTION_DDOT></tleParameters></data></segment></body></omm>
<omm id="CCSDS_OMM_VERS" version="2.0">
<header><CREATION_DATE/><ORIGINATOR/></header><body><segment><metadata><OBJECT_NAME>KUIPER-00087</OBJECT_NAME><OBJECT_ID>2025-151T</OBJECT_ID><CENTER_NAME>EARTH</CENTER_NAME><REF_FRAME>TEME</REF_FRAME><TIME_SYSTEM>UTC</TIME_SYSTEM><MEAN_ELEMENT_THEORY>SGP4</MEAN_ELEMENT_THEORY></metadata><data><meanElements><EPOCH>2025-08-01T12:54:02.475360</EPOCH><MEAN_MOTION>15.35599540</MEAN_MOTION><ECCENTRICITY>.00053</ECCENTRICITY><INCLINATION>51.8779</INCLINATION><RA_OF_ASC_NODE>209.1648</RA_OF_ASC_NODE><ARG_OF_PERICENTER>190.2758</ARG_OF_PERICENTER><MEAN_ANOMALY>169.8120</MEAN_ANOMALY></meanElements><tleParameters><EPHEMERIS_TYPE>0</EPHEMERIS_TYPE><CLASSIFICATION_TYPE>U</CLASSIFICATION_TYPE><NORAD_CAT_ID>64833</NORAD_CAT_ID><ELEMENT_SET_NO>999</ELEMENT_SET_NO><REV_AT_EPOCH>249</REV_AT_EPOCH><BSTAR>.73789E-3</BSTAR><MEAN_MOTION_DOT>.25642E-3</MEAN_MOTION_DOT><MEAN_MOTION_DDOT>0</MEAN_MOTION_DDOT></tleParameters></data></segment></body></omm>

</ndm>
