KUIPER-00079            
1 64826U 25151L   25213.46982977  .00024481  00000+0  69764-3 0  9998
2 64826  51.8779 209.4593 0005991 188.4187 171.6699 15.35929609  3683
KUIPER-00080            
1 64827U 25151M   25213.47284505  .00022270  00000+0  64177-3 0  9999
2 64827  51.8781 209.4819 0005014 197.7387 162.3424 15.35640697  2486
KUIPER-00082            
1 64828U 25151N   25213.60187331  .00015573  00000+0  45108-3 0  9995
2 64828  51.8775 208.8424 0005338 195.3191 164.7634 15.35735274  2509
KUIPER-00083            
1 64829U 25151P   25213.54065173  .00016554  00000+0  48526-3 0  9995
2 64829  51.8768 209.1790 0005224 202.9633 157.1120 15.35310294  3689
KUIPER-00084            
1 64830U 25151Q   25213.58335648 -.00911072  00000+0 -32490-1 0  9990
2 64830  51.8789 209.0646 0005920 209.6542 339.4975 15.31165182  2221
KUIPER-00085            
1 64831U 25151R   25213.60029604  .00027119  00000+0  77223-3 0  9999
2 64831  51.8779 208.8330 0006041 190.2691 169.8172 15.35893783  2507
KUIPER-00086            
1 64832U 25151S   25213.54218093  .00025342  00000+0  73937-3 0  9999
2 64832  51.8771 209.1909 0005324 213.9640 146.1006 15.35173630  2490
KUIPER-00087            
1 64833U 25151T   25213.53752865  .00025642  00000+0  73789-3 0  9997
2 64833  51.8779 209.1648 0005300 190.2758 169.8120 15.35599540  2491
